SHIYAN-24C 02           
1 58651U 23206B   26068.89175597  .00002770  00000+0  23935-3 0  9991
2 58651  97.3985  41.8071 0003465  80.6641 279.4974 14.97980163120443
STARLINK-34476          
1 64364U 25126W   26068.29369186  .00006374  00000+0  54139-3 0  9999
2 64364  70.0025  35.4114 0002951 270.6697  89.4123 14.98335488 40623
